DIAMOND RED             
1 42783U 17036U   24050.60419933  .00130385  00000+0  11354-2 0  9992
2 42783  97.1130  88.1722 0001895 255.8491 104.2561 15.68614881371145
DIAMOND GREEN           
1 42785U 17036W   24050.60349491  .00202102  00000+0  12515-2 0  9992
2 42785  97.1087  89.3528 0001927 232.2837 127.8254 15.76487472371293
DIAMOND BLUE            
1 42786U 17036X   24050.62259129  .00158597  00000+0  11932-2 0  9993
2 42786  97.1128  88.7989 0002141 233.8077 126.2989 15.72065508371258
CICERO 6                
1 42793U 17036AE  24050.59226844  .00074373  00000+0  91857-3 0  9999
2 42793  97.1138  86.8700 0002512 263.1529  96.9442 15.59903599371159
CORVUS BC2              
1 42846U 17042X   24050.48538229  .00005538  00000+0  49127-3 0  9996
2 42846  97.3748 242.2902 0010179  97.0107 263.2274 14.96521905359686
CORVUS BC1              
1 42847U 17042Y   24050.79255347  .00004651  00000+0  41196-3 0  9991
2 42847  97.3730 242.9645 0009356  96.1687 264.0602 14.96663617359745
MIRATA                  
1 43015U 17073C   24050.89976152  .00020998  00000+0  11070-2 0  9997
2 43015  97.6115 297.4386 0186238 303.5729  54.7834 15.01803176338546
MAKERSAT 0              
1 43016U 17073D   24050.92524864  .00015419  00000+0  93656-3 0  9994
2 43016  97.6002 293.4041 0206297 319.8609  38.7524 14.94470900338231
CORVUS BC3              
1 43118U 18004H   24050.73288443  .00076317  00000+0  95542-3 0  9991
2 43118  97.2987 132.4815 0004470 306.8242  53.2605 15.59531083340306
GOMX-4B                 
1 43196U 18015E   24050.93724260  .00039323  00000+0  69073-3 0  9999
2 43196  97.5983 216.8572 0010157  28.0878 332.0919 15.50360972337136
GOMX-4A                 
1 43197U 18015F   24050.90555598  .00049157  00000+0  70122-3 0  9996
2 43197  97.5933 220.5319 0009367  18.5018 341.6575 15.56100462337387
CUBEBEL-1 (BSUSAT-1)    
1 43666U 18083E   24050.81211688  .00487799  90951-4  17323-2 0  9991
2 43666  97.3352  93.9338 0003157 254.8365 105.2558 15.88950721295637
CICERO 10               
1 43690U 18088A   24050.62872177  .00066462  00000+0  10035-2 0  9992
2 43690  85.0189 263.2955 0009075  26.7558 333.4167 15.54447648293662
PROXIMA I               
1 43694U 18088E   24050.81936459  .00090897  00000+0  97737-3 0  9995
2 43694  85.0114 257.2639 0007618 348.5698  11.5392 15.63405010294108
PROXIMA II              
1 43696U 18088G   24050.61705193  .00087208  00000+0  96028-3 0  9998
2 43696  85.0098 257.5275 0007529 347.3711  12.7363 15.62805146294052
SIRION PATHFINDER-2     
1 43759U 18099B   24050.90600678  .00005523  00000+0  43420-3 0  9992
2 43759  97.5456 110.4023 0014932 340.7550  19.3109 15.01172796284758
CORVUS BC4              
1 43767U 18099K   24050.88914524  .00004896  00000+0  39170-3 0  9995
2 43767  97.5288 107.9593 0012929  42.8513 317.3717 15.00578545284641
MOVE-II                 
1 43780U 18099Y   24050.91650654  .00015305  00000+0  92349-3 0  9999
2 43780  97.5384 115.3948 0007946  33.3303 326.8426 15.10796896285044
SPACEBEE-7              
1 43816U 18099BL  24050.69035030  .00012297  00000+0  80457-3 0  9993
2 43816  97.5655 116.0961 0010172 342.1249  17.9619 15.07867295284536
SPACEBEE-5              
1 43817U 18099BM  24050.78233205  .01515831  11278-2  48105-2 0  9996
2 43817  97.5414 134.7047 0012162 295.8626  64.1392 15.91322908285685
SPACEBEE-6              
1 43818U 18099BN  24050.91422223  .00021304  00000+0  11254-2 0  9991
2 43818  97.5575 120.0716 0009582 347.0888  13.0097 15.15485662284954
SHIELDS 1               
1 43850U 18104B   24050.86660775  .00013765  00000+0  41570-3 0  9991
2 43850  85.0270   3.1708 0013200 143.3191 216.8963 15.34032698288005
STF-1                   
1 43852U 18104D   24050.83699795  .06045071 -14372-5  12183-2 0  9996
2 43852  84.9836 353.0783 0008872 153.2740 206.9020 16.31352424289018
ZACUBE-2                
1 43907U 18111AH  24050.90542087  .00123474  00000+0  10252-2 0  9993
2 43907  97.0917 292.8163 0009975  37.0364 323.1585 15.69740589287550
SONATE                  
1 44400U 19038Q   24050.92963629  .00016732  00000+0  59859-3 0  9997
2 44400  97.7081  40.3022 0018702 157.1597 203.0478 15.28705502255988
LUCKY-7                 
1 44406U 19038W   24050.92078980  .00026333  00000+0  77498-3 0  9997
2 44406  97.7012  43.0433 0017070 144.0429 216.1966 15.34908098256171
BEESAT 9                
1 44412U 19038AC  24050.91662935  .00075864  00000+0  11938-2 0  9991
2 44412  97.6868  48.4765 0013957 123.8619 236.3964 15.53231961256260
JAISAT-1                
1 44419U 19038F   24050.91426275  .00073479  00000+0  11723-2 0  9995
2 44419  97.6861  49.5625 0013308 123.4212 236.8315 15.52869070256646
DUCHIFAT-3              
1 44854U 19089C   24050.95855571  .00014297  00000+0  81443-3 0  9993
2 44854  36.9600  44.3770 0009872 209.0473 150.9724 15.12159550230341
M2 PATHFINDER           
1 45727U 20037E   24050.91099701  .00005049  00000+0  45391-3 0  9996
2 45727  97.7686 228.1059 0012065 152.3031 207.8835 14.96062983198252
NETSAT-4                
1 46504U 20068U   24050.87256679  .00010715  00000+0  62365-3 0  9994
2 46504  97.7928   5.2019 0012120  54.2160 306.0194 15.12164483186276
NETSAT-3                
1 46505U 20068V   24050.81920483  .00011210  00000+0  65986-3 0  9993
2 46505  97.7895   4.7884 0011405  61.7707 298.4673 15.11752353186262
NETSAT-1                
1 46506U 20068W   24050.82987662  .00009213  00000+0  55930-3 0  9995
2 46506  97.7913   4.4905 0010056  70.5514 289.6801 15.10703189186245
NETSAT-2                
1 46507U 20068X   24050.81665468  .00012374  00000+0  72161-3 0  9999
2 46507  97.7909   4.8172 0009618  76.3113 283.9187 15.12078882186210
WILDTRACKCUBE-SIMBA     
1 47941U 21022K   24050.96595240  .00010931  00000+0  54319-3 0  9991
2 47941  97.4752 309.0453 0016067 191.1079 168.9802 15.17717268160515
BEESAT-6                
1 47957U 21022AB  24050.67963799  .00070466  00000+0  18495-2 0  9997
2 47957  97.4644 314.9159 0011770 155.4752 204.7055 15.38312529160699
SMOG-1                  
1 47964U 21022AJ  24050.99048786  .00053053  00000+0  13517-2 0  9993
2 47964  97.4772 318.1254 0011429 141.4577 218.7486 15.39310443159923
BCCSAT-1                
1 48041U 21022AK  24050.68232095  .00044756  00000+0  13867-2 0  9992
2 48041  97.4764 315.3676 0009975 147.3605 212.8255 15.33255301159696
BEESAT-5                
1 48083U 21022AM  24049.69721651  .00087720  00000+0  20419-2 0  9997
2 48083  97.4483 314.5852 0011083 150.7527 209.4342 15.41904261159752
BEESAT-7                
1 48084U 21022AN  24050.91813259  .00049308  00000+0  13170-2 0  9997
2 48084  97.4708 315.4972 0011427 155.4632 204.7158 15.37876199159472
BEESAT-8                
1 48085U 21022AP  24050.67263092  .00027290  00000+0  10921-2 0  9992
2 48085  97.4833 312.2206 0013865 177.1908 182.9409 15.24957279159776
LEDSAT                  
1 49069U 21073D   24050.94710156  .00013642  00000+0  62582-3 0  9996
2 49069  97.4523 123.2160 0020629 341.9855  18.0647 15.20361024138461
